[{"OBJECT_NAME":"GENMAT-1","OBJECT_ID":"2023-174W","EPOCH":"2026-03-09T18:03:23.351040","MEAN_MOTION":15.32594666,"ECCENTRICITY":0.00074416,"INCLINATION":97.3728,"RA_OF_ASC_NODE":146.8236,"ARG_OF_PERICENTER":169.2515,"MEAN_ANOMALY":190.8888,"EPHEMERIS_TYPE":0,"CLASSIFICATION_TYPE":"U","NORAD_CAT_ID":58276,"ELEMENT_SET_NO":999,"REV_AT_EPOCH":12973,"BSTAR":0.00042157222,"MEAN_MOTION_DOT":0.0001321,"MEAN_MOTION_DDOT":0},{"OBJECT_NAME":"STARLINK-35950","OBJECT_ID":"2025-271F","EPOCH":"2026-03-09T11:42:55.467072","MEAN_MOTION":15.30178221,"ECCENTRICITY":0.0001255,"INCLINATION":53.1566,"RA_OF_ASC_NODE":141.0272,"ARG_OF_PERICENTER":65.2395,"MEAN_ANOMALY":294.8736,"EPHEMERIS_TYPE":0,"CLASSIFICATION_TYPE":"U","NORAD_CAT_ID":66622,"ELEMENT_SET_NO":999,"REV_AT_EPOCH":1753,"BSTAR":0.0013183901,"MEAN_MOTION_DOT":0.00038866,"MEAN_MOTION_DDOT":0}]
